{
  "norad_id": 65643,
  "name": "STARLINK-35062",
  "history": [
    {
      "epoch": "2026-03-28T17:59:22.012512Z",
      "apogee_km": 476.0459156170318,
      "perigee_km": 474.30380374230026,
      "latitude_deg": -3.331802913482579e-05,
      "longitude_deg": 122.22222013462058,
      "height_km": 475.6242013702233,
      "semi_major_axis_km": 6853.311859679666,
      "eccentricity": 0.0001271,
      "inclination_deg": 53.1594,
      "raan_deg": 218.2295,
      "arg_perigee_deg": 58.9765,
      "mean_anomaly_deg": 301.136,
      "mean_motion_rev_day": 15.30213467
    },
    {
      "epoch": "2026-03-29T01:49:37.975008Z",
      "apogee_km": 476.16454523118136,
      "perigee_km": 474.23053422406974,
      "latitude_deg": -1.6866040751950043e-05,
      "longitude_deg": 2.8162362656052,
      "height_km": 476.0494758453714,
      "semi_major_axis_km": 6853.334539727625,
      "eccentricity": 0.0001411,
      "inclination_deg": 53.1594,
      "raan_deg": 216.7119,
      "arg_perigee_deg": 87.2801,
      "mean_anomaly_deg": 272.8361,
      "mean_motion_rev_day": 15.30205871
    }
  ]
}